{"fetched_at":"2026-03-29T16:36:15Z","count":15609,"tles":[{"name":"STARLINK-35182","line1":"1 65504U 25198N   26087.74222106  .00032472  00000+0  11034-2 0  9990","line2":"2 65504  53.1595 182.7427 0001154  95.7022 264.4111 15.30207544 31539","category":"Starlink"}]}